NORAD_CAT_ID,OBJECT_NAME,OBJECT_TYPE,EPOCH,MEAN_MOTION,ECCENTRICITY,INCLINATION,RA_OF_ASC_NODE,ARG_OF_PERICENTER,MEAN_ANOMALY,BSTAR,MEAN_MOTION_DOT,MEAN_MOTION_DDOT,TLE_LINE0,TLE_LINE1,TLE_LINE2,SEMIMAJOR_AXIS,PERIOD,APOGEE,PERIGEE,DECAYED
51772.0,STARLINK-3623,PAYLOAD,2022-11-07 10:44:26,15.08843143,0.0001636999999999,53.2184,48.0204,53.0972,307.017,0.00067068,0.00010403,0.0,0 STARLINK-3623,1 51772U 22017E   22311.44752600  .00010403  00000-0  67068-3 0  9999,2 51772  53.2184  48.0204 0001637  53.0972 307.0170 15.08843143 40197,6917.871,95.437,540.868,538.6030000000002,0.0
51772.0,STARLINK-3623,PAYLOAD,2022-11-07 18:41:21,15.08849259,0.0001177,53.2181,46.5332,62.3438,297.7673,0.00060668,9.383e-05,0.0,0 STARLINK-3623,1 51772U 22017E   22311.77872414  .00009383  00000-0  60668-3 0  9995,2 51772  53.2181  46.5332 0001177  62.3438 297.7673 15.08849259 38732,6917.852,95.437,540.531,538.903,0.0
51772.0,STARLINK-3623,PAYLOAD,2022-11-08 15:21:21,15.08878587,0.0001374,53.2179,42.6686,53.1683,306.9435,0.0010215,0.00016024,0.0,0 STARLINK-3623,1 51772U 22017E   22312.63982836  .00016024  00000-0  10215-2 0  9993,2 51772  53.2179  42.6686 0001374  53.1683 306.9435 15.08878587 40375,6917.762,95.435,540.578,538.677,0.0
51772.0,STARLINK-3623,PAYLOAD,2022-11-09 13:36:44,15.08814559,0.0001792,53.2183,38.5064,52.8702,307.2453,-0.0022697,-0.00036205,0.0,0 STARLINK-3623,1 51772U 22017E   22313.56717750 -.00036205  00000-0 -22697-2 0  9999,2 51772  53.2183  38.5064 0001792  52.8702 307.2453 15.08814559 39007,6917.958000000001,95.439,541.063,538.5830000000002,0.0
51772.0,STARLINK-3623,PAYLOAD,2022-11-09 23:09:03,15.08813647,0.0001457,53.2191,36.7218,56.178,303.9351,-0.0010960999999999,-0.00017677,0.0,0 STARLINK-3623,1 51772U 22017E   22313.96462398 -.00017677  00000-0 -10961-2 0  9991,2 51772  53.2191  36.7218 0001457  56.1780 303.9351 15.08813647 40579,6917.9609999999975,95.439,540.8340000000002,538.818,0.0
51772.0,STARLINK-3623,PAYLOAD,2022-11-10 11:52:09,15.08815336,0.0001771999999999,53.2187,34.3439,47.7408,312.3734,0.00034361,5.181e-05,0.0,0 STARLINK-3623,1 51772U 22017E   22314.49455674  .00005181  00000-0  34361-3 0  9995,2 51772  53.2187  34.3439 0001772  47.7408 312.3734 15.08815336 39143,6917.956,95.439,541.047,538.595,0.0
51772.0,STARLINK-3623,PAYLOAD,2022-11-10 16:38:19,15.08820388,0.0001837,53.2181,33.4516,50.9766,309.139,0.00088689,0.00013847,0.0,0 STARLINK-3623,1 51772U 22017E   22314.69328105  .00013847  00000-0  88689-3 0  9995,2 51772  53.2181  33.4516 0001837  50.9766 309.1390 15.08820388 40684,6917.94,95.439,541.076,538.535,0.0
51772.0,STARLINK-3623,PAYLOAD,2022-11-11 11:42:57,15.08834402,0.0001836,53.2187,29.8833,51.3368,308.7788,0.00060454,9.345e-05,0.0,0 STARLINK-3623,1 51772U 22017E   22315.48816748  .00009345  00000-0  60454-3 0  9996,2 51772  53.2187  29.8833 0001836  51.3368 308.7788 15.08834402 39296,6917.897,95.438,541.033,538.492,0.0
51772.0,STARLINK-3623,PAYLOAD,2022-11-11 16:29:07,15.08837993,0.0001846,53.2183,28.9912,50.8402,309.2754,0.00060181,9.302e-05,0.0,0 STARLINK-3623,1 51772U 22017E   22315.68688812  .00009302  00000-0  60181-3 0  9997,2 51772  53.2183  28.9912 0001846  50.8402 309.2754 15.08837993 40833,6917.887,95.438,541.029,538.474,0.0
51772.0,STARLINK-3623,PAYLOAD,2022-11-12 11:33:44,15.08851275,0.0001561999999999,53.2184,25.4223,53.5712,306.5424,0.0005274,8.118e-05,0.0,0 STARLINK-3623,1 51772U 22017E   22316.48176322  .00008118  00000-0  52740-3 0  9990,2 51772  53.2184  25.4223 0001562  53.5712 306.5424 15.08851275 39448,6917.846,95.437,540.7909999999998,538.63,0.0
51772.0,STARLINK-3623,PAYLOAD,2022-11-12 16:19:53,15.08853582,0.0001546,53.2181,24.5303,53.8387,306.2748,0.00049551,7.609999999999999e-05,0.0,0 STARLINK-3623,1 51772U 22017E   22316.68048151  .00007610  00000-0  49551-3 0  9992,2 51772  53.2181  24.5303 0001546  53.8387 306.2748 15.08853582 39479,6917.839,95.437,540.773,538.634,0.0
51772.0,STARLINK-3623,PAYLOAD,2022-11-13 05:02:58,15.08860109,0.0001578,53.2181,22.1512,54.0558,306.0581,0.00039525,6.011e-05,0.0,0 STARLINK-3623,1 51772U 22017E   22317.21039467  .00006011  00000-0  39525-3 0  9996,2 51772  53.2181  22.1512 0001578  54.0558 306.0581 15.08860109 41067,6917.819,95.436,540.776,538.592,0.0
51772.0,STARLINK-3623,PAYLOAD,2022-11-13 11:24:30,15.08841372,0.0001561,53.2181,20.9608,41.8256,318.2856,-0.00014717,-2.63e-05,0.0,0 STARLINK-3623,1 51772U 22017E   22317.47535747 -.00002630  00000-0 -14717-3 0  9997,2 51772  53.2181  20.9608 0001561  41.8256 318.2856 15.08841372 41106,6917.876,95.437,540.821,538.661,0.0
51772.0,STARLINK-3623,PAYLOAD,2022-11-13 16:10:40,15.08829084,0.0001675,53.2183,20.0703,45.9981,314.1149,-0.00030881,-5.198e-05,0.0,0 STARLINK-3623,1 51772U 22017E   22317.67408472 -.00005198  00000-0 -30881-3 0  9995,2 51772  53.2183  20.0703 0001675  45.9981 314.1149 15.08829084 41130,6917.9140000000025,95.438,540.938,538.62,0.0
51772.0,STARLINK-3623,PAYLOAD,2022-11-14 08:04:32,15.08834045,0.0001686,53.2182,17.0967,44.8002,315.3126,0.00010795,1.4300000000000004e-05,0.0,0 STARLINK-3623,1 51772U 22017E   22318.33648665  .00001430  00000-0  10795-3 0  9994,2 51772  53.2182  17.0967 0001686  44.8002 315.3126 15.08834045 41233,6917.899,95.438,540.93,538.597,0.0
51772.0,STARLINK-3623,PAYLOAD,2022-11-14 11:15:18,15.08837959,0.0001634,53.2181,16.5021,50.6358,309.4779,0.00029249,4.370000000000001e-05,0.0,0 STARLINK-3623,1 51772U 22017E   22318.46896707  .00004370  00000-0  29249-3 0  9990,2 51772  53.2181  16.5021 0001634  50.6358 309.4779 15.08837959 39747,6917.887,95.438,540.882,538.621,0.0
51772.0,STARLINK-3623,PAYLOAD,2022-11-14 14:26:05,15.0883927,0.000176,53.2184,15.9072,44.7427,315.3707,0.00077841,0.00012122,0.0,0 STARLINK-3623,1 51772U 22017E   22318.60144873  .00012122  00000-0  77841-3 0  9991,2 51772  53.2184  15.9072 0001760  44.7427 315.3707 15.08839270 39767,6917.8830000000025,95.438,540.965,538.53,0.0
51772.0,STARLINK-3623,PAYLOAD,2022-11-15 11:06:05,15.08847225,0.0001833,53.2182,12.0416,45.8695,314.2448,0.00044425,6.791e-05,0.0,0 STARLINK-3623,1 51772U 22017E   22319.46256805  .00006791  00000-0  44425-3 0  9992,2 51772  53.2182  12.0416 0001833  45.8695 314.2448 15.08847225 39898,6917.858,95.437,540.991,538.455,0.0
51772.0,STARLINK-3623,PAYLOAD,2022-11-15 15:52:15,15.0883649,0.0001981,53.2183,11.1503,45.1295,314.9858,3.9379e-05,3.39e-06,0.0,0 STARLINK-3623,1 51772U 22017E   22319.66129059  .00000339  00000-0  39379-4 0  9999,2 51772  53.2183  11.1503 0001981  45.1295 314.9858 15.08836490 41436,6917.891,95.438,541.127,538.386,0.0
51772.0,STARLINK-3623,PAYLOAD,2022-11-16 09:21:30,15.08840267,0.0002348,53.2191,7.8793,42.1185,317.9987,0.00015733,2.217e-05,0.0,0 STARLINK-3623,1 51772U 22017E   22320.38993294  .00002217  00000-0  15733-3 0  9994,2 51772  53.2191   7.8793 0002348  42.1185 317.9987 15.08840267 40039,6917.88,95.438,541.369,538.12,0.0
51772.0,STARLINK-3623,PAYLOAD,2022-11-16 15:43:02,15.0883858,0.000246,53.2188,6.69,40.8877,319.2299,0.00012408,1.687e-05,0.0,0 STARLINK-3623,1 51772U 22017E   22320.65489440  .00001687  00000-0  12408-3 0  9993,2 51772  53.2188   6.6900 0002460  40.8877 319.2299 15.08838580 40070,6917.885,95.438,541.452,538.048,0.0
51772.0,STARLINK-3623,PAYLOAD,2022-11-16 20:29:12,15.08836828,0.0002276,53.2185,5.7978,43.0509,317.0661,6.1186e-05,6.86e-06,0.0,0 STARLINK-3623,1 51772U 22017E   22320.85361520  .00000686  00000-0  61186-4 0  9999,2 51772  53.2185   5.7978 0002276  43.0509 317.0661 15.08836828 41617,6917.89,95.438,541.33,538.181,0.0
51772.0,STARLINK-3623,PAYLOAD,2022-11-17 12:23:03,15.08843403,0.0001657,53.2177,2.8224,49.1484,310.9652,0.0002587,3.832e-05,0.0,0 STARLINK-3623,1 51772U 22017E   22321.51601197  .00003832  00000-0  25870-3 0  9995,2 51772  53.2177   2.8224 0001657  49.1484 310.9652 15.08843403 40204,6917.87,95.437,540.881,538.589,0.0
51772.0,STARLINK-3623,PAYLOAD,2022-11-17 13:58:26,15.08838985,0.0001545,53.2171,2.5232,57.9613,302.1529,0.00011101,1.479e-05,0.0,0 STARLINK-3623,1 51772U 22017E   22321.58225272  .00001479  00000-0  11101-3 0  9995,2 51772  53.2171   2.5232 0001545  57.9613 302.1529 15.08838985 40217,6917.8830000000025,95.438,540.817,538.68,0.0
51772.0,STARLINK-3623,PAYLOAD,2022-11-18 12:13:50,15.08846715,0.0001848,53.2183,358.3623,47.1588,312.956,0.00024371,3.593e-05,0.0,0 STARLINK-3623,1 51772U 22017E   22322.50961289  .00003593  00000-0  24371-3 0  9995,2 51772  53.2183 358.3623 0001848  47.1588 312.9560 15.08846715 41860,6917.86,95.437,541.003,538.446,0.0
51772.0,STARLINK-3623,PAYLOAD,2022-11-19 02:32:18,15.0883983,0.0001849,53.2179,355.6871,43.2997,316.814,0.00010424,1.371e-05,0.0,0 STARLINK-3623,1 51772U 22017E   22323.10577541  .00001371  00000-0  10424-3 0  9992,2 51772  53.2179 355.6871 0001849  43.2997 316.8140 15.08839830 41959,6917.880999999999,95.438,541.025,538.467,0.0
51772.0,STARLINK-3623,PAYLOAD,2022-11-19 13:40:00,15.08850261,0.0001844,53.218,353.6058,45.4329,314.6813,0.00017248,2.459e-05,0.0,0 STARLINK-3623,1 51772U 22017E   22323.56944999  .00002459  00000-0  17248-3 0  9996,2 51772  53.2180 353.6058 0001844  45.4329 314.6813 15.08850261 42027,6917.849,95.437,540.99,538.438,0.0
51772.0,STARLINK-3623,PAYLOAD,2022-11-20 11:55:24,15.08837503,0.0001881,53.2183,349.4429,44.0478,316.0664,-2.2937e-05,-6.53e-06,0.0,0 STARLINK-3623,1 51772U 22017E   22324.49681524 -.00000653  00000-0 -22937-4 0  9999,2 51772  53.2183 349.4429 0001881  44.0478 316.0664 15.08837503 42165,6917.888000000001,95.438,541.054,538.452,0.0
51772.0,STARLINK-3623,PAYLOAD,2022-11-21 10:10:48,15.08847709,0.0001773,53.2189,345.2801,44.8379,315.2756,0.00014026,1.945e-05,0.0,0 STARLINK-3623,1 51772U 22017E   22325.42417072  .00001945  00000-0  14026-3 0  9990,2 51772  53.2189 345.2801 0001773  44.8379 315.2756 15.08847709 42305,6917.857,95.437,540.948,538.495,0.0
